CCSDS_OMM_VERS = 2.0
CREATION_DATE  = 
ORIGINATOR     = 

OBJECT_NAME    = ATLAS CENTAUR R/B
OBJECT_ID      = 1972-065B
CENTER_NAME    = EARTH
REF_FRAME      = TEME
TIME_SYSTEM    = UTC
MEAN_ELEMENT_THEORY = SGP/SGP4

EPOCH          = 2026-01-21T12:42:51.630336
MEAN_MOTION    = 14.77529319
ECCENTRICITY   = .00342296
INCLINATION    = 35.0000
RA_OF_ASC_NODE = 222.0972
ARG_OF_PERICENTER = 332.3417
MEAN_ANOMALY   = 27.5464

EPHEMERIS_TYPE = 0
CLASSIFICATION_TYPE = U
NORAD_CAT_ID   = 6155
ELEMENT_SET_NO = 999
REV_AT_EPOCH   = 83428
BSTAR          = .26945314E-3
MEAN_MOTION_DOT = .195E-4
MEAN_MOTION_DDOT = 0

CCSDS_OMM_VERS = 2.0
CREATION_DATE  = 
ORIGINATOR     = 

OBJECT_NAME    = SL-8 R/B
OBJECT_ID      = 1975-112B
CENTER_NAME    = EARTH
REF_FRAME      = TEME
TIME_SYSTEM    = UTC
MEAN_ELEMENT_THEORY = SGP/SGP4

EPOCH          = 2026-01-22T07:34:00.487488
MEAN_MOTION    = 14.38176836
ECCENTRICITY   = .0016161
INCLINATION    = 74.0609
RA_OF_ASC_NODE = 104.2254
ARG_OF_PERICENTER = 211.0780
MEAN_ANOMALY   = 148.9420

EPHEMERIS_TYPE = 0
CLASSIFICATION_TYPE = U
NORAD_CAT_ID   = 8459
ELEMENT_SET_NO = 999
REV_AT_EPOCH   = 62520
BSTAR          = .18425E-3
MEAN_MOTION_DOT = .534E-5
MEAN_MOTION_DDOT = 0

CCSDS_OMM_VERS = 2.0
CREATION_DATE  = 
ORIGINATOR     = 

OBJECT_NAME    = SL-3 R/B
OBJECT_ID      = 1977-057B
CENTER_NAME    = EARTH
REF_FRAME      = TEME
TIME_SYSTEM    = UTC
MEAN_ELEMENT_THEORY = SGP/SGP4

EPOCH          = 2026-01-22T11:15:53.663904
MEAN_MOTION    = 15.44087952
ECCENTRICITY   = .0008589
INCLINATION    = 97.5712
RA_OF_ASC_NODE = 192.4236
ARG_OF_PERICENTER = 90.2199
MEAN_ANOMALY   = 270.0033

EPHEMERIS_TYPE = 0
CLASSIFICATION_TYPE = U
NORAD_CAT_ID   = 10114
ELEMENT_SET_NO = 999
REV_AT_EPOCH   = 66119
BSTAR          = .3348E-3
MEAN_MOTION_DOT = .15242E-3
MEAN_MOTION_DDOT = 0

CCSDS_OMM_VERS = 2.0
CREATION_DATE  = 
ORIGINATOR     = 

OBJECT_NAME    = SEASAT 1
OBJECT_ID      = 1978-064A
CENTER_NAME    = EARTH
REF_FRAME      = TEME
TIME_SYSTEM    = UTC
MEAN_ELEMENT_THEORY = SGP/SGP4

EPOCH          = 2026-01-22T11:54:10.790208
MEAN_MOTION    = 14.46113618
ECCENTRICITY   = .0001223
INCLINATION    = 108.0168
RA_OF_ASC_NODE = 28.5540
ARG_OF_PERICENTER = 283.9039
MEAN_ANOMALY   = 76.1970

EPHEMERIS_TYPE = 0
CLASSIFICATION_TYPE = U
NORAD_CAT_ID   = 10967
ELEMENT_SET_NO = 999
REV_AT_EPOCH   = 49983
BSTAR          = .23603E-3
MEAN_MOTION_DOT = .707E-5
MEAN_MOTION_DDOT = 0

CCSDS_OMM_VERS = 2.0
CREATION_DATE  = 
ORIGINATOR     = 

OBJECT_NAME    = SL-14 R/B
OBJECT_ID      = 1979-011B
CENTER_NAME    = EARTH
REF_FRAME      = TEME
TIME_SYSTEM    = UTC
MEAN_ELEMENT_THEORY = SGP/SGP4

EPOCH          = 2026-01-22T07:13:43.768992
MEAN_MOTION    = 14.91837426
ECCENTRICITY   = .0015345
INCLINATION    = 82.5260
RA_OF_ASC_NODE = 140.5772
ARG_OF_PERICENTER = 207.8239
MEAN_ANOMALY   = 152.2161

EPHEMERIS_TYPE = 0
CLASSIFICATION_TYPE = U
NORAD_CAT_ID   = 11267
ELEMENT_SET_NO = 999
REV_AT_EPOCH   = 52186
BSTAR          = .12687E-3
MEAN_MOTION_DOT = .1308E-4
MEAN_MOTION_DDOT = 0

CCSDS_OMM_VERS = 2.0
CREATION_DATE  = 
ORIGINATOR     = 

OBJECT_NAME    = SL-8 R/B
OBJECT_ID      = 1979-089B
CENTER_NAME    = EARTH
REF_FRAME      = TEME
TIME_SYSTEM    = UTC
MEAN_ELEMENT_THEORY = SGP/SGP4

EPOCH          = 2026-01-22T11:34:33.683520
MEAN_MOTION    = 14.42316041
ECCENTRICITY   = .0015816
INCLINATION    = 74.0681
RA_OF_ASC_NODE = 176.5706
ARG_OF_PERICENTER = 356.5249
MEAN_ANOMALY   = 3.5795

EPHEMERIS_TYPE = 0
CLASSIFICATION_TYPE = U
NORAD_CAT_ID   = 11574
ELEMENT_SET_NO = 999
REV_AT_EPOCH   = 42944
BSTAR          = .20102E-3
MEAN_MOTION_DOT = .638E-5
MEAN_MOTION_DDOT = 0

CCSDS_OMM_VERS = 2.0
CREATION_DATE  = 
ORIGINATOR     = 

OBJECT_NAME    = SL-14 R/B
OBJECT_ID      = 1980-005B
CENTER_NAME    = EARTH
REF_FRAME      = TEME
TIME_SYSTEM    = UTC
MEAN_ELEMENT_THEORY = SGP/SGP4

EPOCH          = 2026-01-22T08:25:17.414400
MEAN_MOTION    = 14.90855296
ECCENTRICITY   = .0014754
INCLINATION    = 82.5158
RA_OF_ASC_NODE = 351.1781
ARG_OF_PERICENTER = 323.2057
MEAN_ANOMALY   = 36.8148

EPHEMERIS_TYPE = 0
CLASSIFICATION_TYPE = U
NORAD_CAT_ID   = 11672
ELEMENT_SET_NO = 999
REV_AT_EPOCH   = 46958
BSTAR          = .12524E-3
MEAN_MOTION_DOT = .126E-4
MEAN_MOTION_DDOT = 0

CCSDS_OMM_VERS = 2.0
CREATION_DATE  = 
ORIGINATOR     = 

OBJECT_NAME    = SL-8 R/B
OBJECT_ID      = 1981-003B
CENTER_NAME    = EARTH
REF_FRAME      = TEME
TIME_SYSTEM    = UTC
MEAN_ELEMENT_THEORY = SGP/SGP4

EPOCH          = 2026-01-22T08:24:19.459872
MEAN_MOTION    = 15.08934537
ECCENTRICITY   = .0268903
INCLINATION    = 82.9397
RA_OF_ASC_NODE = 332.8148
ARG_OF_PERICENTER = 340.6515
MEAN_ANOMALY   = 18.4650

EPHEMERIS_TYPE = 0
CLASSIFICATION_TYPE = U
NORAD_CAT_ID   = 12139
ELEMENT_SET_NO = 999
REV_AT_EPOCH   = 30768
BSTAR          = .75918E-3
MEAN_MOTION_DOT = .28636E-3
MEAN_MOTION_DDOT = 0

CCSDS_OMM_VERS = 2.0
CREATION_DATE  = 
ORIGINATOR     = 

OBJECT_NAME    = SL-3 R/B
OBJECT_ID      = 1981-046B
CENTER_NAME    = EARTH
REF_FRAME      = TEME
TIME_SYSTEM    = UTC
MEAN_ELEMENT_THEORY = SGP/SGP4

EPOCH          = 2026-01-22T10:21:46.090080
MEAN_MOTION    = 15.40635605
ECCENTRICITY   = .0019326
INCLINATION    = 81.2343
RA_OF_ASC_NODE = 345.2197
ARG_OF_PERICENTER = 174.5408
MEAN_ANOMALY   = 185.6049

EPHEMERIS_TYPE = 0
CLASSIFICATION_TYPE = U
NORAD_CAT_ID   = 12465
ELEMENT_SET_NO = 999
REV_AT_EPOCH   = 43130
BSTAR          = .35246E-3
MEAN_MOTION_DOT = .1449E-3
MEAN_MOTION_DDOT = 0

CCSDS_OMM_VERS = 2.0
CREATION_DATE  = 
ORIGINATOR     = 

OBJECT_NAME    = SL-3 R/B
OBJECT_ID      = 1981-103B
CENTER_NAME    = EARTH
REF_FRAME      = TEME
TIME_SYSTEM    = UTC
MEAN_ELEMENT_THEORY = SGP/SGP4

EPOCH          = 2026-01-22T11:04:00.504480
MEAN_MOTION    = 15.20787609
ECCENTRICITY   = .0014369
INCLINATION    = 81.1580
RA_OF_ASC_NODE = 267.6486
ARG_OF_PERICENTER = 80.4854
MEAN_ANOMALY   = 279.8000

EPHEMERIS_TYPE = 0
CLASSIFICATION_TYPE = U
NORAD_CAT_ID   = 12904
ELEMENT_SET_NO = 999
REV_AT_EPOCH   = 96620
BSTAR          = .30993E-3
MEAN_MOTION_DOT = .6873E-4
MEAN_MOTION_DDOT = 0

CCSDS_OMM_VERS = 2.0
CREATION_DATE  = 
ORIGINATOR     = 

OBJECT_NAME    = SL-3 R/B
OBJECT_ID      = 1982-013B
CENTER_NAME    = EARTH
REF_FRAME      = TEME
TIME_SYSTEM    = UTC
MEAN_ELEMENT_THEORY = SGP/SGP4

EPOCH          = 2026-01-22T11:44:39.608448
MEAN_MOTION    = 15.21483997
ECCENTRICITY   = .0022411
INCLINATION    = 81.1720
RA_OF_ASC_NODE = 214.8962
ARG_OF_PERICENTER = 338.0090
MEAN_ANOMALY   = 22.0177

EPHEMERIS_TYPE = 0
CLASSIFICATION_TYPE = U
NORAD_CAT_ID   = 13068
ELEMENT_SET_NO = 999
REV_AT_EPOCH   = 39732
BSTAR          = .26295E-3
MEAN_MOTION_DOT = .5978E-4
MEAN_MOTION_DDOT = 0

CCSDS_OMM_VERS = 2.0
CREATION_DATE  = 
ORIGINATOR     = 

OBJECT_NAME    = SL-3 R/B
OBJECT_ID      = 1982-039B
CENTER_NAME    = EARTH
REF_FRAME      = TEME
TIME_SYSTEM    = UTC
MEAN_ELEMENT_THEORY = SGP/SGP4

EPOCH          = 2026-01-22T11:14:09.775680
MEAN_MOTION    = 15.09804795
ECCENTRICITY   = .0030025
INCLINATION    = 81.1655
RA_OF_ASC_NODE = 269.2259
ARG_OF_PERICENTER = 115.6858
MEAN_ANOMALY   = 244.7473

EPHEMERIS_TYPE = 0
CLASSIFICATION_TYPE = U
NORAD_CAT_ID   = 13154
ELEMENT_SET_NO = 999
REV_AT_EPOCH   = 37466
BSTAR          = .24696E-3
MEAN_MOTION_DOT = .4056E-4
MEAN_MOTION_DDOT = 0

