ATLAS CENTAUR R/B       
1 06155U 72065B   26021.52976424  .00001950  00000+0  26945-3 0  9990
2 06155  35.0000 222.0972 0034229 332.3417  27.5464 14.77529319834285
SL-8 R/B                
1 08459U 75112B   26022.31528342  .00000534  00000+0  18425-3 0  9996
2 08459  74.0609 104.2254 0016161 211.0780 148.9420 14.38176836625206
SL-3 R/B                
1 10114U 77057B   26022.46937111  .00015242  00000+0  33480-3 0  9991
2 10114  97.5712 192.4236 0008589  90.2199 270.0033 15.44087952661190
SEASAT 1                
1 10967U 78064A   26022.49595822  .00000707  00000+0  23603-3 0  9994
2 10967 108.0168  28.5540 0001223 283.9039  76.1970 14.46113618499833
SL-14 R/B               
1 11267U 79011B   26022.30120103  .00001308  00000+0  12687-3 0  9995
2 11267  82.5260 140.5772 0015345 207.8239 152.2161 14.91837426521862
SL-8 R/B                
1 11574U 79089B   26022.48233430  .00000638  00000+0  20102-3 0  9994
2 11574  74.0681 176.5706 0015816 356.5249   3.5795 14.42316041429441
SL-14 R/B               
1 11672U 80005B   26022.35089600  .00001260  00000+0  12524-3 0  9998
2 11672  82.5158 351.1781 0014754 323.2057  36.8148 14.90855296469588
SL-8 R/B                
1 12139U 81003B   26022.35022523  .00028636  00000+0  75918-3 0  9999
2 12139  82.9397 332.8148 0268903 340.6515  18.4650 15.08934537307680
SL-3 R/B                
1 12465U 81046B   26022.43178345  .00014490  00000+0  35246-3 0  9994
2 12465  81.2343 345.2197 0019326 174.5408 185.6049 15.40635605431301
SL-3 R/B                
1 12904U 81103B   26022.46111695  .00006873  00000+0  30993-3 0  9994
2 12904  81.1580 267.6486 0014369  80.4854 279.8000 15.20787609966206
SL-3 R/B                
1 13068U 82013B   26022.48934732  .00005978  00000+0  26295-3 0  9999
2 13068  81.1720 214.8962 0022411 338.0090  22.0177 15.21483997397326
SL-3 R/B                
1 13154U 82039B   26022.46816870  .00004056  00000+0  24696-3 0  9992
2 13154  81.1655 269.2259 0030025 115.6858 244.7473 15.09804795374666
